H1 CPF  1  DGF 2022 09 07 10  7504 larets     NONE      
H2   304206 5557    27944 2022 09 07 00 00 00 2022 09 14 00 00 00    30 1 1  0 0 0
H5  0.0650
H9
10 0 59834      0.000000  0       2632996.875       2711713.926      -5969805.635
10 0 59834     30.000000  0       2808522.463       2793606.197      -5850484.557
10 0 59834     60.000000  0       2981564.761       2871917.219      -5725216.677
10 0 59834     90.000000  0       3151932.359       2946578.307      -5594127.429
10 0 59834    120.000000  0       3319436.122       3017525.225      -5457348.224
10 0 59834    150.000000  0       3483889.412       3084698.248      -5315016.331
10 0 59834    180.000000  0       3645108.297       3148042.220      -5167274.744
10 0 59834    210.000000  0       3802911.759       3207506.597      -5014272.050
10 0 59834    240.000000  0       3957121.905       3263045.490      -4856162.290
10 0 59834    270.000000  0       4107564.171       3314617.712      -4693104.810
10 0 59834    300.000000  0       4254067.532       3362186.805      -4525264.116
10 0 59834    330.000000  0       4396464.703       3405721.071      -4352809.705
10 0 59834    360.000000  0       4534592.339       3445193.591      -4175915.901
10 0 59834    390.000000  0       4668291.223       3480582.242      -3994761.685
10 0 59834    420.000000  0       4797406.461       3511869.708      -3809530.520
10 0 59834    450.000000  0       4921787.666       3539043.485      -3620410.167
10 0 59834    480.000000  0       5041289.143       3562095.883      -3427592.503
10 0 59834    510.000000  0       5155770.068       3581024.022      -3231273.327
10 0 59834    540.000000  0       5265094.660       3595829.820      -3031652.167
10 0 59834    570.000000  0       5369132.357       3606519.977      -2828932.071
10 0 59834    600.000000  0       5467757.979       3613105.954      -2623319.407
10 0 59834    630.000000  0       5560851.886       3615603.941      -2415023.644
10 0 59834    660.000000  0       5648300.135       3614034.820      -2204257.137
10 0 59834    690.000000  0       5729994.620       3608424.127      -1991234.911
10 0 59834    720.000000  0       5805833.218       3598802.005      -1776174.435
10 0 59834    750.000000  0       5875719.921       3585203.152      -1559295.394
10 0 59834    780.000000  0       5939564.958       3567666.761      -1340819.464
10 0 59834    810.000000  0       5997284.924       3546236.459      -1120970.079
10 0 59834    840.000000  0       6048802.886       3520960.239       -899972.195
10 0 59834    870.000000  0       6094048.498       3491890.387       -678052.053
10 0 59834    900.000000  0       6132958.092       3459083.398       -455436.936
10 0 59834    930.000000  0       6165474.772       3422599.894       -232354.933
10 0 59834    960.000000  0       6191548.496       3382504.530         -9034.692
10 0 59834    990.000000  0       6211136.153       3338865.902        214294.820
10 0 59834   1020.000000  0       6224201.628       3291756.444        437404.564
10 0 59834   1050.000000  0       6230715.857       3241252.324        660065.673
10 0 59834   1080.000000  0       6230656.876       3187433.335        882049.693
10 0 59834   1110.000000  0       6224009.862       3130382.783       1103128.833
10 0 59834   1140.000000  0       6210767.162       3070187.373       1323076.199
10 0 59834   1170.000000  0       6190928.323       3006937.083       1541666.046
10 0 59834   1200.000000  0       6164500.100       2940725.043       1758674.012
10 0 59834   1230.000000  0       6131496.472       2871647.405       1973877.361
10 0 59834   1260.000000  0       6091938.633       2799803.211       2187055.225
10 0 59834   1290.000000  0       6045854.984       2725294.253       2397988.838
10 0 59834   1320.000000  0       5993281.109       2648224.937       2606461.771
10 0 59834   1350.000000  0       5934259.749       2568702.139       2812260.161
10 0 59834   1380.000000  0       5868840.757       2486835.060       3015172.935
10 0 59834   1410.000000  0       5797081.057       2402735.080       3214992.039
10 0 59834   1440.000000  0       5719044.586       2316515.613       3411512.651
10 0 59834   1470.000000  0       5634802.233       2228291.952       3604533.399
10 0 59834   1500.000000  0       5544431.764       2138181.118       3793856.576
10 0 59834   1530.000000  0       5448017.745       2046301.709       3979288.345
10 0 59834   1560.000000  0       5345651.449       1952773.736       4160638.938
10 0 59834   1590.000000  0       5237430.758       1857718.477       4337722.847
10 0 59834   1620.000000  0       5123460.069       1761258.313       4510359.010
10 0 59834   1650.000000  0       5003850.187       1663516.577       4678370.999
10 0 59834   1680.000000  0       4878718.211       1564617.395       4841587.204
10 0 59834   1710.000000  0       4748187.413       1464685.531       4999841.014
10 0 59834   1740.000000  0       4612387.098       1363846.227       5152970.989
10 0 59834   1770.000000  0       4471452.470       1262225.044       5300821.022
10 0 59834   1800.000000  0       4325524.484       1159947.708       5443240.494
10 0 59834   1830.000000  0       4174749.691       1057139.955       5580084.428
10 0 59834   1860.000000  0       4019280.082        953927.371       5711213.626
10 0 59834   1890.000000  0       3859272.922        850435.245       5836494.810
10 0 59834   1920.000000  0       3694890.582        746788.413       5955800.742
10 0 59834   1950.000000  0       3526300.366        643111.110       6069010.352
10 0 59834   1980.000000  0       3353674.340        539526.825       6176008.847
10 0 59834   2010.000000  0       3177189.144        436158.155       6276687.827
10 0 59834   2040.000000  0       2997025.813        333126.661       6370945.390
10 0 59834   2070.000000  0       2813369.581        230552.725       6458686.230
10 0 59834   2100.000000  0       2626409.683        128555.410       6539821.728
10 0 59834   2130.000000  0       2436339.159         27252.326       6614270.029
10 0 59834   2160.000000  0       2243354.650        -73240.508       6681956.131
10 0 59834   2190.000000  0       2047656.191       -172808.795       6742811.945
10 0 59834   2220.000000  0       1849446.995       -271340.089       6796776.370
10 0 59834   2250.000000  0       1648933.243       -368723.921       6843795.345
10 0 59834   2280.000000  0       1446323.855       -464851.927       6883821.898
10 0 59834   2310.000000  0       1241830.275       -559617.962       6916816.184
10 0 59834   2340.000000  0       1035666.244       -652918.221       6942745.515
10 0 59834   2370.000000  0        828047.581       -744651.348       6961584.391
10 0 59834   2400.000000  0        619191.955       -834718.543       6973314.522
10 0 59834   2430.000000  0        409318.650       -923023.673       6977924.843
10 0 59834   2460.000000  0        198648.338      -1009473.372       6975411.519
10 0 59834   2490.000000  0        -12597.156      -1093977.139       6965777.941
10 0 59834   2520.000000  0       -224195.084      -1176447.432       6949034.725
10 0 59834   2550.000000  0       -435922.014      -1256799.760       6925199.690
10 0 59834   2580.000000  0       -647554.066      -1334952.766       6894297.844
10 0 59834   2610.000000  0       -858867.145      -1410828.311       6856361.349
10 0 59834   2640.000000  0      -1069637.181      -1484351.553       6811429.491
10 0 59834   2670.000000  0      -1279640.361      -1555451.012       6759548.632
10 0 59834   2700.000000  0      -1488653.366      -1624058.645       6700772.169
10 0 59834   2730.000000  0      -1696453.605      -1690109.906       6635160.477
10 0 59834   2760.000000  0      -1902819.453      -1753543.803       6562780.849
10 0 59834   2790.000000  0      -2107530.484      -1814302.956       6483707.437
10 0 59834   2820.000000  0      -2310367.705      -1872333.649       6398021.176
10 0 59834   2850.000000  0      -2511113.793      -1927585.875       6305809.711
10 0 59834   2880.000000  0      -2709553.334      -1980013.382       6207167.315
10 0 59834   2910.000000  0      -2905473.056      -2029573.710       6102194.792
10 0 59834   2940.000000  0      -3098662.067      -2076228.226       5990999.381
10 0 59834   2970.000000  0      -3288912.085      -2119942.154       5873694.638
10 0 59834   3000.000000  0      -3476017.661      -2160684.593       5750400.326
10 0 59834   3030.000000  0      -3659776.402      -2198428.542       5621242.294
10 0 59834   3060.000000  0      -3839989.193      -2233150.910       5486352.357
10 0 59834   3090.000000  0      -4016460.419      -2264832.528       5345868.159
10 0 59834   3120.000000  0      -4188998.182      -2293458.154       5199933.038
10 0 59834   3150.000000  0      -4357414.510      -2319016.469       5048695.878
10 0 59834   3180.000000  0      -4521525.571      -2341500.078       4892310.960
10 0 59834   3210.000000  0      -4681151.871      -2360905.491       4730937.808
10 0 59834   3240.000000  0      -4836118.456      -2377233.112       4564741.022
10 0 59834   3270.000000  0      -4986255.107      -2390487.218       4393890.120
10 0 59834   3300.000000  0      -5131396.532      -2400675.934       4218559.362
10 0 59834   3330.000000  0      -5271382.553      -2407811.203       4038927.575
10 0 59834   3360.000000  0      -5406058.283      -2411908.752       3855177.973
10 0 59834   3390.000000  0      -5535274.306      -2412988.054       3667497.972
10 0 59834   3420.000000  0      -5658886.847      -2411072.283       3476078.998
10 0 59834   3450.000000  0      -5776757.936      -2406188.268       3281116.293
10 0 59834   3480.000000  0      -5888755.566      -2398366.440       3082808.718
10 0 59834   3510.000000  0      -5994753.848      -2387640.778       2881358.546
10 0 59834   3540.000000  0      -6094633.159      -2374048.751       2676971.260
10 0 59834   3570.000000  0      -6188280.281      -2357631.250       2469855.340
99
